SITRO-AIS 9 (SHCHUKIN)  
1 57201U 23091AM  24226.81488006  .00020319  00000+0  11794-2 0  9999
2 57201  97.6093 279.7111 0010361 271.0004  89.0039 15.12121865 62261
SITRO-AIS 12 (SMIRENNIY)
1 57204U 23091AQ  24226.83620165  .00022102  00000+0  12753-2 0  9996
2 57204  97.6098 279.8865 0010590 264.2314  95.7709 15.12316818 62271
SITRO-AIS 11 (SHEFFER)  
1 57208U 23091AU  24226.81851054  .00021651  00000+0  12457-2 0  9990
2 57208  97.6100 279.8978 0010278 264.5500  95.4558 15.12426481 62274
ROBUSTA-1E (ENSO)       
1 58470U 23185J   24226.83670480  .00033740  00000+0  13158-2 0  9991
2 58470  97.4220 293.0264 0012856  80.1350 280.1339 15.25786585 38925
SITRO-AIS 29            
1 59052U 24039B   24226.87050331  .00049169  00000+0  16134-2 0  9997
2 59052  97.3941 188.5329 0016514  24.8665 335.3369 15.31307784 25413
SITRO-AIS 30            
1 59053U 24039C   24226.87277324  .00046978  00000+0  15478-2 0  9996
2 59053  97.3940 188.5249 0016745  25.3807 334.8253 15.31184332 25401
SITRO-AIS 31            
1 59054U 24039D   24226.86063155  .00049739  00000+0  16290-2 0  9992
2 59054  97.3940 188.5419 0016572  25.1971 335.0075 15.31365323 25427
SITRO-AIS 33            
1 59055U 24039E   24226.84742155  .00048951  00000+0  15964-2 0  9997
2 59055  97.3945 188.5667 0016381  26.2818 333.9251 15.31509577 25411
SITRO-AIS 35            
1 59056U 24039F   24226.84290569  .00048097  00000+0  15682-2 0  9993
2 59056  97.3943 188.5690 0016204  26.7617 333.4457 15.31523682 25418
SITRO-AIS 32            
1 59057U 24039G   24226.85429197  .00049227  00000+0  16121-2 0  9991
2 59057  97.3944 188.5562 0016262  26.6490 333.5583 15.31375774 25418
SITRO-AIS 34            
1 59058U 24039H   24226.84840906  .00048782  00000+0  15928-2 0  9995
2 59058  97.3945 188.5669 0016404  26.5256 333.6822 15.31471079 25417
SITRO-AIS 36            
1 59059U 24039J   24226.83631769  .00049052  00000+0  15954-2 0  9990
2 59059  97.3945 188.5783 0016026  26.9611 333.2460 15.31601079 25413
SITRO-AIS 49            
1 59060U 24039K   24226.83831186  .00048296  00000+0  15755-2 0  9995
2 59060  97.3945 188.5758 0016051  26.3603 333.8452 15.31508455 25411
SITRO-AIS 50            
1 59061U 24039L   24226.82325709  .00050021  00000+0  16200-2 0  9999
2 59061  97.3943 188.5947 0015902  26.8964 333.3099 15.31734981 25416
SITRO-AIS 51            
1 59062U 24039M   24226.82322240  .00048089  00000+0  15574-2 0  9991
2 59062  97.3943 188.5940 0015891  27.0829 333.1238 15.31745836 25414
SITRO-AIS 52            
1 59063U 24039N   24226.87876638  .00049290  00000+0  15904-2 0  9994
2 59063  97.3943 188.6747 0015784  26.8054 333.4000 15.31860200 25423
SITRO-AIS 25            
1 59066U 24039R   24226.82512465  .00011617  00000+0  10884-2 0  9991
2 59066  95.3989 136.4166 0171205 144.0466 217.2418 14.83584413 24652
SITRO-AIS 26            
1 59067U 24039S   24226.82595321  .00010953  00000+0  10278-2 0  9993
2 59067  95.3989 136.4149 0171149 144.0784 217.2087 14.83539452 24659
SITRO-AIS 27            
1 59068U 24039T   24226.81006525  .00011008  00000+0  10292-2 0  9994
2 59068  95.3991 136.4339 0170709 143.9288 217.3595 14.83727455 24659
SITRO-AIS 28            
1 59071U 24039U   24226.87331998  .00010606  00000+0  99110-3 0  9999
2 59071  95.3992 136.4851 0170538 143.6785 217.6155 14.83771549 24661
GRBBETA                 
1 60237U 24128C   24227.53131083  .00009462  00000+0  82669-3 0  9990
2 60237  61.9952  38.2512 0012430 311.7909  48.2117 14.97272203  5334
OOV-CUBE (TUBSAT-30)    
1 60240U 24128F   24227.54508895  .00007059  00000+0  63184-3 0  9995
2 60240  61.9988  38.3335 0011330 297.7362  62.2576 14.96618157  5342
ROBUSTA-3A (MEDITERRAN*)
1 60243U 24128J   24227.55766792  .00014919  00000+0  13247-2 0  9998
2 60243  61.9927  38.3593 0013396 284.7335  75.2268 14.96306971  5344
BEIJING 1               
1 28890U 05043A   24226.83833352  .00002003  00000+0  40435-3 0  9993
2 28890  98.2060 349.2991 0014018 222.3117 137.7004 14.62456575  2338
HUANJING 1A (HJ-1A)     
1 33320U 08041A   24226.82977241  .00006524  00000+0  85917-3 0  9999
2 33320  97.6329 231.0097 0020374 178.0770 182.0525 14.80308100858781
HUANJING 1B (HJ-1B)     
1 33321U 08041B   24226.82351781  .00004304  00000+0  56195-3 0  9995
2 33321  97.6275 235.5284 0037041 225.7640 134.0530 14.80515445858813
YAOGAN-4                
1 33446U 08061A   24227.23711018  .00005780  00000+0  76675-3 0  9998
2 33446  97.8781 158.0253 0016704  96.6482 263.6632 14.80110686846145
DEIMOS-1                
1 35681U 09041A   24226.78447832  .00002920  00000+0  45664-3 0  9996
2 35681  97.6831  45.6307 0001609 144.7347 215.3969 14.73488764807798
UK-DMC 2                
1 35683U 09041C   24226.85898813  .00004079  00000+0  63405-3 0  9995
2 35683  97.7886  12.1603 0001120  92.2651 267.8686 14.73560607807450
DMC3-FM1                
1 40715U 15032A   24226.89088096  .00003348  00000+0  40943-3 0  9992
2 40715  97.7416 104.0972 0007287 101.2169 258.9865 14.83868944490135
DMC3-FM2                
1 40716U 15032B   24226.91347424  .00002973  00000+0  36419-3 0  9995
2 40716  97.7469 105.2272 0009161 105.5657 254.6569 14.83876476490135
DMC3-FM3                
1 40717U 15032C   24226.87415163  .00003478  00000+0  42577-3 0  9990
2 40717  97.7517 106.4920 0010638 103.7615 256.4784 14.83783058490130
NOAA 15                 
1 25338U 98030A   24227.51901630  .00000766  00000+0  33443-3 0  9991
2 25338  98.5668 253.4230 0010981 148.8932 211.2900 14.26662212365751
DMSP 5D-3 F16 (USA 172) 
1 28054U 03048A   24227.53486773  .00000643  00000+0  36169-3 0  9994
2 28054  99.0224 234.5539 0006234 244.7199 227.0774 14.14074321 74523
NOAA 18                 
1 28654U 05018A   24227.47485837  .00000745  00000+0  42092-3 0  9997
2 28654  98.8720 303.9519 0013196 256.6144 103.3557 14.13284061991495
METEOSAT-9 (MSG-2)      
1 28912U 05049B   24226.69369057  .00000131  00000+0  00000+0 0  9994
2 28912   7.8141  60.3704 0000768   7.4776 190.3308  1.00279182   269
EWS-G1 (GOES 13)        
1 29155U 06018A   24227.32421887 -.00000226  00000+0  00000+0 0  9998
2 29155   2.7723  84.6079 0073880 256.2738  77.1763  0.99010583 66736
DMSP 5D-3 F17 (USA 191) 
1 29522U 06050A   24227.54349959  .00000677  00000+0  37551-3 0  9999
2 29522  98.7450 236.9175 0010293 166.7462 193.3983 14.14526784917448
FENGYUN 3A              
1 32958U 08026A   24227.48214088  .00000652  00000+0  33211-3 0  9990
2 32958  98.6064 172.9257 0007509 264.6192  95.4127 14.19148428840222
NOAA 19                 
1 33591U 09005A   24227.50543656  .00000649  00000+0  37166-3 0  9990
2 33591  99.0431 283.9108 0014741 125.9873 234.2667 14.13077289799863
GOES 14                 
1 35491U 09033A   24226.66305861 -.00000056  00000+0  00000+0 0  9998
2 35491   0.0735 257.2217 0004242 243.1936 312.4638  1.00273713 55365
DMSP 5D-3 F18 (USA 210) 
1 35951U 09057A   24227.56388585  .00000960  00000+0  52620-3 0  9991
2 35951  98.8186 202.1430 0011359   7.5071 352.6269 14.14208582764618
EWS-G2 (GOES 15)        
1 36411U 10008A   24226.84736941  .00000043  00000+0  00000+0 0  9997
2 36411   0.4633 274.6325 0005569 283.8097 131.1461  1.00281722 52900
COMS 1                  
1 36744U 10032A   24226.99594036 -.00000337  00000+0  00000+0 0  9993
2 36744   3.0909  83.7302 0000956  59.8799 305.9682  1.00270861 51911
FENGYUN 3B              
1 37214U 10059A   24226.86902955  .00000455  00000+0  26081-3 0  9995
2 37214  99.0530 255.7604 0021160 290.7112 193.6873 14.14538944712365
SUOMI NPP               
1 37849U 11061A   24227.54517119  .00000434  00000+0  22645-3 0  9992
2 37849  98.7227 164.6512 0002033  89.6327 270.5082 14.19548178663148
FENGYUN 2F              
1 38049U 12002A   24226.86530791 -.00000351  00000+0  00000+0 0  9992
2 38049   5.7320  72.5434 0000749 155.7858 158.1136  1.00276687 46133
METEOSAT-10 (MSG-3)     
1 38552U 12035B   24227.18535382  .00000003  00000+0  00000+0 0  9997
2 38552   3.0921  61.3316 0000525 338.8297 349.9320  1.00266715 44479
METOP-B                 
1 38771U 12049A   24227.45616484  .00000607  00000+0  29734-3 0  9997
2 38771  98.6238 283.3581 0000876  94.9060 265.2218 14.21473257617829
INSAT-3D                
1 39216U 13038B   24227.56875053 -.00000330  00000+0  00000+0 0  9997
2 39216   0.1795  94.3939 0001126  81.4990 121.8138  1.00277286 40565
FENGYUN 3C              
1 39260U 13052A   24226.88795998  .00000519  00000+0  28259-3 0  9993
2 39260  98.4315 223.4430 0011539 154.6633 205.5111 14.16249994563498
METEOR-M 2              
1 40069U 14037A   24226.83971419  .00000677  00000+0  33132-3 0  9996
2 40069  98.4402 218.5110 0005637 178.5012 181.6184 14.21020481523812
HIMAWARI-8              
1 40267U 14060A   24227.57491359 -.00000266  00000+0  00000+0 0  9993
2 40267   0.0477 254.3016 0000838 257.7293 159.0815  1.00273043 36136
FENGYUN 2G              
1 40367U 14090A   24226.85098316 -.00000293  00000+0  00000+0 0  9993
2 40367   3.9327  80.8666 0003026 136.9843 150.7839  1.00267530 35257
METEOSAT-11 (MSG-4)     
1 40732U 15034A   24226.90104891  .00000075  00000+0  00000+0 0  9997
2 40732   1.5216  70.2114 0001880 162.7781  63.8672  1.00280881   489
ELEKTRO-L 2             
1 41105U 15074A   24226.82480179 -.00000109  00000+0  00000+0 0  9992
2 41105   4.9834  78.7718 0001719 143.9094  22.5181  1.00272129 31767
INSAT-3DR               
1 41752U 16054A   24226.82410359 -.00000067  00000+0  00000+0 0  9995
2 41752   0.0633  94.2558 0010828 168.2106  70.9386  1.00272365 29054
HIMAWARI-9              
1 41836U 16064A   24227.57491361 -.00000266  00000+0  00000+0 0  9995
2 41836   0.0463 240.3424 0001059 278.5432 152.3012  1.00270348 28562
